NEXTSAT-1               
1 43811U 18099BF  26068.68342010  .00004546  00000+0  29857-3 0  9992
2 43811  97.4203 114.8574 0011320 323.9610  36.0854 15.08057555396886
STARLINK-34866          
1 65189U 25175R   26068.63563596  .00003873  00000+0  27254-3 0  9997
2 65189  97.6019 302.6258 0002675  81.3187 278.8342 15.05636656 32638
