[{"OBJECT_NAME":"NEXTSAT-1","OBJECT_ID":"2018-099BF","EPOCH":"2026-03-09T16:24:07.497504","MEAN_MOTION":15.08057555,"ECCENTRICITY":0.001132,"INCLINATION":97.4203,"RA_OF_ASC_NODE":114.8574,"ARG_OF_PERICENTER":323.961,"MEAN_ANOMALY":36.0854,"EPHEMERIS_TYPE":0,"CLASSIFICATION_TYPE":"U","NORAD_CAT_ID":43811,"ELEMENT_SET_NO":999,"REV_AT_EPOCH":39688,"BSTAR":0.00029857014,"MEAN_MOTION_DOT":4.546e-5,"MEAN_MOTION_DDOT":0},{"OBJECT_NAME":"STARLINK-34866","OBJECT_ID":"2025-175R","EPOCH":"2026-03-09T15:15:18.946944","MEAN_MOTION":15.05636656,"ECCENTRICITY":0.0002675,"INCLINATION":97.6019,"RA_OF_ASC_NODE":302.6258,"ARG_OF_PERICENTER":81.3187,"MEAN_ANOMALY":278.8342,"EPHEMERIS_TYPE":0,"CLASSIFICATION_TYPE":"U","NORAD_CAT_ID":65189,"ELEMENT_SET_NO":999,"REV_AT_EPOCH":3263,"BSTAR":0.00027254,"MEAN_MOTION_DOT":3.873e-5,"MEAN_MOTION_DDOT":0}]
